OBJECT_NAME,OBJECT_ID,EPOCH,MEAN_MOTION,ECCENTRICITY,INCLINATION,RA_OF_ASC_NODE,ARG_OF_PERICENTER,MEAN_ANOMALY,EPHEMERIS_TYPE,CLASSIFICATION_TYPE,NORAD_CAT_ID,ELEMENT_SET_NO,REV_AT_EPOCH,BSTAR,MEAN_MOTION_DOT,MEAN_MOTION_DDOT
SCD 1,1993-009B,2026-06-20T07:58:07.994208,14.46119674,.0041952,24.9675,188.1587,170.9157,213.0702,0,U,22490,999,76157,.3451E-4,.313E-5,0
TECHSAT 1B (GO-32),1998-043D,2026-06-20T10:27:54.995616,14.24428915,.0001219,99.0068,164.2767,156.5266,203.5967,0,U,25397,999,45179,.3389E-4,.32E-6,0
SCD 2,1998-060A,2026-06-20T01:48:34.661088,14.45526782,.0016856,24.9960,54.3455,153.1205,320.9038,0,U,25504,999,46074,.44252353E-4,.341E-5,0
DLR-TUBSAT,1999-029B,2026-06-19T23:31:24.910752,14.52427375,.00138683,98.6694,166.5761,346.6123,13.4702,0,U,25757,999,43365,.23075183E-4,.46E-6,0
TERRA,1999-068A,2026-06-20T10:34:48.156960,14.61105267,.0001842,97.9454,220.8581,178.7606,238.1366,0,U,25994,999,41008,.65041E-4,.275E-5,0
MAROC-TUBSAT,2001-056D,2026-06-20T08:56:33.256896,13.70262541,.0020418,99.8084,348.2921,133.3391,346.0489,0,U,27004,999,22662,.13845E-4,-.34E-6,0
AQUA,2002-022A,2026-06-20T10:11:34.436832,14.62162126,.0000982,98.4278,140.7722,55.9702,96.4678,0,U,27424,999,28374,.12157E-3,.562E-5,0
SHIYAN-1 (SY-1),2004-012A,2026-06-20T04:25:52.174560,15.33824479,.00053065,97.8685,249.4480,22.5113,337.6360,0,U,28220,999,21155,.34056659E-3,.11063E-3,0
AURA,2004-026A,2026-06-20T09:49:55.166592,14.61333094,.0001187,98.3418,127.8897,77.8282,282.3052,0,U,28376,999,16668,.12442E-3,.566E-5,0
IRS-P5 (CARTOSAT-1),2005-017A,2026-06-20T00:44:44.141280,14.91055438,.00025258,97.5305,193.9666,76.4954,283.6546,0,U,28649,999,14424,.10255078E-3,.963E-5,0
SINAH 1,2005-043D,2026-06-20T09:40:00.249888,14.64159377,.0013138,98.2865,305.7437,265.6982,94.2719,0,U,28893,999,10099,.51932E-4,.224E-5,0
RESURS-DK 1,2006-021A,2026-06-20T09:45:31.459104,15.13228164,.0006868,69.9331,331.2197,290.2744,69.7684,0,U,29228,999,10306,.87373E-4,.1448E-4,0
ARIRANG-2 (KOMPSAT-2),2006-031A,2026-06-21T12:47:22.053696,14.64662141,.0015793,97.8312,356.7686,62.1883,22.3025,0,U,29268,999,6211,.38659E-4,.161E-5,0
LAPAN-TUBSAT,2007-001A,2026-06-21T11:55:09.954336,14.85956536,.0012315,98.1347,171.8184,165.0172,195.1409,0,U,29709,999,5179,.13862E-3,.1154E-4,0
HAIYANG-1B,2007-010A,2026-06-20T10:20:43.240992,14.31027586,.0013231,98.3495,153.1505,186.4668,173.6347,0,U,31113,999,110,.41288E-4,.67E-6,0
COSMO-SKYMED 1,2007-023A,2026-06-21T13:06:35.091936,14.97118892,.0001612,97.8853,4.4384,96.2803,263.8602,0,U,31598,999,3044,.20804E-3,.2341E-4,0
TERRASAR-X,2007-026A,2026-06-19T11:55:50.815488,15.19151206,.00015727,97.4452,178.1696,90.3933,269.7482,0,U,31698,999,5357,.10103879E-4,.145E-5,0
WORLDVIEW-1 (WV-1),2007-041A,2026-06-20T10:38:05.104032,15.24296645,.0001947,97.3881,291.1401,10.6143,349.5135,0,U,32060,999,4337,.197E-3,.4743E-4,0
YAOGAN-3,2007-055A,2026-06-21T13:22:28.451136,14.90793867,.0001754,97.8147,202.3919,82.7386,277.4032,0,U,32289,999,652,.18283E-3,.1742E-4,0
COSMO-SKYMED 2,2007-059A,2026-06-21T11:33:40.285728,14.82157909,.0001333,97.8888,356.0172,89.2119,270.9247,0,U,32376,999,264,.41513E-4,.278E-5,0
RADARSAT-2,2007-061A,2026-06-21T12:22:57.989280,14.29982678,.0001308,98.5779,179.3870,84.3473,275.7858,0,U,32382,999,96657,.51486E-4,.89E-6,0
CARTOSAT-2A,2008-021A,2026-06-21T12:15:50.063904,14.79246926,.001333,97.7628,221.0728,96.4021,263.8709,0,U,32783,999,97944,.17696E-3,.1267E-4,0
HUANJING 1A (HJ-1A),2008-041A,2026-06-21T13:10:42.864672,14.83994384,.0020258,97.6688,158.2194,121.0821,239.2385,0,U,33320,999,95905,.92209E-4,.719E-5,0
HUANJING 1B (HJ-1B),2008-041B,2026-06-21T12:29:02.281056,14.83321897,.0036434,97.6522,161.3498,166.7610,193.4570,0,U,33321,999,95905,.89798E-4,.692E-5,0
GEOEYE 1,2008-042A,2026-06-20T10:20:32.111808,14.64728217,.0005299,98.1235,245.3211,61.7686,298.4052,0,U,33331,999,95062,.69364E-4,.322E-5,0
THEOS,2008-049A,2026-06-21T11:28:21.847296,14.20135036,.0001189,98.5565,229.6229,81.1049,279.0262,0,U,33396,999,91857,.16891E-3,.318E-5,0
COSMO-SKYMED 3,2008-054A,2026-06-21T12:36:48.907584,15.06975009,.0013918,97.8285,31.1674,249.8501,110.1229,0,U,33412,999,95759,.18677E-3,.2734E-4,0
YAOGAN-4,2008-061A,2026-06-20T09:43:38.987904,14.83205273,.001563,97.9306,104.8918,62.9607,297.3200,0,U,33446,999,94614,.98778E-4,.754E-5,0
GOSAT (IBUKI),2009-002A,2026-06-20T04:57:26.151552,14.67540318,.00014723,98.0896,282.2496,79.8858,280.2513,0,U,33492,999,93190,.15399744E-3,.825E-5,0
DEIMOS-1,2009-041A,2026-06-21T12:39:18.304416,14.75240261,.0001932,97.7413,329.5665,127.1499,232.9888,0,U,35681,999,90752,.50338E-4,.293E-5,0
